NORAD_CAT_ID,OBJECT_NAME,OBJECT_TYPE,EPOCH,MEAN_MOTION,ECCENTRICITY,INCLINATION,RA_OF_ASC_NODE,ARG_OF_PERICENTER,MEAN_ANOMALY,BSTAR,MEAN_MOTION_DOT,MEAN_MOTION_DDOT,TLE_LINE0,TLE_LINE1,TLE_LINE2,SEMIMAJOR_AXIS,PERIOD,APOGEE,PERIGEE,DECAYED
53291.0,STARLINK-4166,PAYLOAD,2023-10-09 03:28:32,15.08862055,0.0001434,53.2168,180.8064,90.8712,269.2444,0.00046467,7.119e-05,0.0,0 STARLINK-4166,1 53291U 22086BB  23282.14482068  .00007119  00000-0  46467-3 0  9996,2 53291  53.2168 180.8064 0001434  90.8712 269.2444 15.08862055 68020,6917.813,95.436,540.67,538.686,0.0
53291.0,STARLINK-4166,PAYLOAD,2023-10-09 17:47:01,15.08847776,0.0003017,53.2165,178.1301,76.0869,284.0459,0.00024238,3.572e-05,0.0,0 STARLINK-4166,1 53291U 22086BB  23282.74098992  .00003572  00000-0  24238-3 0  9992,2 53291  53.2165 178.1301 0003017  76.0869 284.0459 15.08847776 67954,6917.857,95.437,541.809,537.635,0.0
53291.0,STARLINK-4166,PAYLOAD,2023-10-09 20:57:47,15.08836883,0.0001415,53.217,177.5364,80.8696,279.2457,-4.6623e-06,-3.62e-06,0.0,0 STARLINK-4166,1 53291U 22086BB  23282.87347145 -.00000362  00000-0 -46623-5 0  9993,2 53291  53.2170 177.5364 0001415  80.8696 279.2457 15.08836883 68135,6917.89,95.438,540.734,538.776,0.0
53291.0,STARLINK-4166,PAYLOAD,2023-10-10 03:19:20,15.08848275,0.0001551,53.2163,176.3435,102.6328,257.4838,0.00068258,0.00010594,0.0,0 STARLINK-4166,1 53291U 22086BB  23283.13842851  .00010594  00000-0  68258-3 0  9999,2 53291  53.2163 176.3435 0001551 102.6328 257.4838 15.08848275 68172,6917.855,95.437,540.793,538.647,0.0
53291.0,STARLINK-4166,PAYLOAD,2023-10-10 20:48:35,15.08831521,0.0001234,53.2163,173.0758,107.5451,252.5676,0.00057691,8.903e-05,0.0,0 STARLINK-4166,1 53291U 22086BB  23283.86707520  .00008903  00000-0  57691-3 0  9992,2 53291  53.2163 173.0758 0001234 107.5451 252.5676 15.08831521 68287,6917.906,95.438,540.625,538.918,0.0
53291.0,STARLINK-4166,PAYLOAD,2023-10-11 01:34:44,15.08839645,0.0001451,53.216,172.1837,108.1986,251.9164,0.0012127,0.00019065,0.0,0 STARLINK-4166,1 53291U 22086BB  23284.06579510  .00019065  00000-0  12127-2 0  9996,2 53291  53.2160 172.1837 0001451 108.1986 251.9164 15.08839645 68159,6917.881,95.438,540.75,538.743,0.0
53291.0,STARLINK-4166,PAYLOAD,2023-10-11 09:31:40,15.08843683,0.000132,53.2159,170.6974,87.4194,272.6949,0.00057716,8.91e-05,0.0,0 STARLINK-4166,1 53291U 22086BB  23284.39699512  .00008910  00000-0  57716-3 0  9998,2 53291  53.2159 170.6974 0001320  87.4194 272.6949 15.08843683 68368,6917.869,95.437,540.647,538.821,0.0
53291.0,STARLINK-4166,PAYLOAD,2023-10-12 01:25:31,15.08839826,0.0001539,53.2165,167.7219,94.035,266.0818,0.00016472,2.334e-05,0.0,0 STARLINK-4166,1 53291U 22086BB  23285.05939680  .00002334  00000-0  16472-3 0  9993,2 53291  53.2165 167.7219 0001539  94.0350 266.0818 15.08839826 68304,6917.881,95.438,540.811,538.681,0.0
53291.0,STARLINK-4166,PAYLOAD,2023-10-12 09:22:27,15.08845006,0.0001533,53.2167,166.2359,92.7714,267.3454,0.00029352,4.387e-05,0.0,0 STARLINK-4166,1 53291U 22086BB  23285.39059582  .00004387  00000-0  29352-3 0  9995,2 53291  53.2167 166.2359 0001533  92.7714 267.3454 15.08845006 68518,6917.865,95.437,540.791,538.67,0.0
53291.0,STARLINK-4166,PAYLOAD,2023-10-12 22:05:32,15.08847738,0.000159,53.2161,163.8568,81.9781,278.1392,0.00032494,4.888e-05,0.0,0 STARLINK-4166,1 53291U 22086BB  23285.92051672  .00004888  00000-0  32494-3 0  9993,2 53291  53.2161 163.8568 0001590  81.9781 278.1392 15.08847738 68597,6917.857,95.437,540.822,538.622,0.0
53291.0,STARLINK-4166,PAYLOAD,2023-10-13 09:13:14,15.08848155,0.0001571,53.2155,161.7802,84.4112,275.7059,0.00027118,4.031e-05,0.0,0 STARLINK-4166,1 53291U 22086BB  23286.38419584  .00004031  00000-0  27118-3 0  9991,2 53291  53.2155 161.7802 0001571  84.4112 275.7059 15.08848155 68501,6917.855,95.437,540.807,538.634,0.0
53291.0,STARLINK-4166,PAYLOAD,2023-10-13 21:56:19,15.08852531,0.0001354,53.2154,159.3963,95.7736,264.341,0.0002474,3.653e-05,0.0,0 STARLINK-4166,1 53291U 22086BB  23286.91411133  .00003653  00000-0  24740-3 0  9999,2 53291  53.2154 159.3963 0001354  95.7736 264.3410 15.08852531 68741,6917.842,95.437,540.644,538.77,0.0
53291.0,STARLINK-4166,PAYLOAD,2023-10-14 09:04:01,15.08847656,0.0001475,53.2164,157.3151,87.5408,272.5753,0.00014914,2.087e-05,0.0,0 STARLINK-4166,1 53291U 22086BB  23287.37779335  .00002087  00000-0  14914-3 0  9993,2 53291  53.2164 157.3151 0001475  87.5408 272.5753 15.08847656 68651,6917.857,95.437,540.742,538.702,0.0
53291.0,STARLINK-4166,PAYLOAD,2023-10-14 20:11:43,15.08835288,0.000147,53.2152,155.2349,82.8214,277.2945,-3.9659e-05,-9.19e-06,0.0,0 STARLINK-4166,1 53291U 22086BB  23287.84147819 -.00000919  00000-0 -39659-4 0  9999,2 53291  53.2152 155.2349 0001470  82.8214 277.2945 15.08835288 68723,6917.895,95.438,540.777,538.743,0.0
53291.0,STARLINK-4166,PAYLOAD,2023-10-14 21:47:06,15.08839717,0.0001396,53.2152,154.9364,90.8908,269.2244,-5.326e-06,-3.73e-06,0.0,0 STARLINK-4166,1 53291U 22086BB  23287.90771596 -.00000373  00000-0 -53260-5 0  9990,2 53291  53.2152 154.9364 0001396  90.8908 269.2244 15.08839717 68894,6917.881,95.438,540.712,538.781,0.0
53291.0,STARLINK-4166,PAYLOAD,2023-10-15 00:57:52,15.08841616,0.0001444,53.2153,154.3409,91.778,268.3377,5.9454e-05,6.58e-06,0.0,0 STARLINK-4166,1 53291U 22086BB  23288.04019571  .00000658  00000-0  59454-4 0  9998,2 53291  53.2153 154.3409 0001444  91.7780 268.3377 15.08841616 68912,6917.875,95.437,540.739,538.742,0.0
53291.0,STARLINK-4166,PAYLOAD,2023-10-15 21:37:53,15.08845493,0.000134,53.2154,150.474,95.6681,264.4464,0.00027153,4.037e-05,0.0,0 STARLINK-4166,1 53291U 22086BB  23288.90131676  .00004037  00000-0  27153-3 0  9999,2 53291  53.2154 150.4740 0001340  95.6681 264.4464 15.08845493 69042,6917.864,95.437,540.656,538.802,0.0
53291.0,STARLINK-4166,PAYLOAD,2023-10-16 00:48:40,15.08845352,0.0001426,53.2155,149.8792,95.9087,264.2068,0.00022112,3.233e-05,0.0,0 STARLINK-4166,1 53291U 22086BB  23289.03379662  .00003233  00000-0  22112-3 0  9990,2 53291  53.2155 149.8792 0001426  95.9087 264.2068 15.08845352 68906,6917.864,95.437,540.716,538.743,0.0
53291.0,STARLINK-4166,PAYLOAD,2023-10-16 10:20:59,15.088412,0.000136,53.2147,148.0961,92.7659,267.3488,0.00028972,4.326e-05,0.0,0 STARLINK-4166,1 53291U 22086BB  23289.43123940  .00004326  00000-0  28972-3 0  9994,2 53291  53.2147 148.0961 0001360  92.7659 267.3488 15.08841200 69126,6917.877,95.437,540.683,538.801,0.0
53291.0,STARLINK-4166,PAYLOAD,2023-10-17 00:39:27,15.08843956,0.0001375,53.2147,145.42,91.5592,268.5558,0.00018349,2.634e-05,0.0,0 STARLINK-4166,1 53291U 22086BB  23290.02739799  .00002634  00000-0  18349-3 0  9993,2 53291  53.2147 145.4200 0001375  91.5592 268.5558 15.08843956 69213,6917.868,95.437,540.685,538.782,0.0
53291.0,STARLINK-4166,PAYLOAD,2023-10-17 21:19:27,15.08843453,0.0001218,53.2156,141.5524,83.9602,276.1529,0.00020165,2.923e-05,0.0,0 STARLINK-4166,1 53291U 22086BB  23290.88851848  .00002923  00000-0  20165-3 0  9997,2 53291  53.2156 141.5524 0001218  83.9602 276.1529 15.08843453 69183,6917.87,95.437,540.577,538.892,0.0
53291.0,STARLINK-4166,PAYLOAD,2023-10-19 00:21:01,15.08845491,0.0003658,53.2115,136.4987,84.1494,275.9915,1.4366e-05,-6e-07,0.0,0 STARLINK-4166,1 53291U 22086BB  23292.01460243 -.00000060  00000-0  14366-4 0  9997,2 53291  53.2115 136.4987 0003658  84.1494 275.9915 15.08845491 69355,6917.864,95.437,542.259,537.198,0.0
53291.0,STARLINK-4166,PAYLOAD,2023-10-19 08:17:56,15.08849098,0.0003141,53.2127,135.0123,82.5488,277.586,3.5428e-05,2.75e-06,0.0,0 STARLINK-4166,1 53291U 22086BB  23292.34579847  .00000275  00000-0  35428-4 0  9993,2 53291  53.2127 135.0123 0003141  82.5488 277.5860 15.08849098 69564,6917.853,95.437,541.89,537.545,0.0
53291.0,STARLINK-4166,PAYLOAD,2023-10-20 12:54:53,15.0884054,0.0002382,53.2093,129.658,99.4299,260.6962,0.00018115,2.596e-05,0.0,0 STARLINK-4166,1 53291U 22086BB  23293.53811849  .00002596  00000-0  18115-3 0  9997,2 53291  53.2093 129.6580 0002382  99.4299 260.6962 15.08840540 69586,6917.879,95.438,541.392,538.096,0.0
53291.0,STARLINK-4166,PAYLOAD,2023-10-20 16:05:39,15.0883237,0.0001479,53.2137,129.0657,101.3519,258.764,-8.0427e-05,-1.567e-05,0.0,0 STARLINK-4166,1 53291U 22086BB  23293.67060063 -.00001567  00000-0 -80427-4 0  9991,2 53291  53.2137 129.0657 0001479 101.3519 258.7640 15.08832370 69604,6917.904,95.438,540.792,538.746,0.0
53291.0,STARLINK-4166,PAYLOAD,2023-10-20 20:51:49,15.08837248,0.0001355,53.2142,128.1731,103.1056,257.0087,-4.6189e-05,-1.023e-05,0.0,0 STARLINK-4166,1 53291U 22086BB  23293.86932038 -.00001023  00000-0 -46189-4 0  9996,2 53291  53.2142 128.1731 0001355 103.1056 257.0087 15.08837248 69798,6917.889,95.438,540.691,538.816,0.0
53291.0,STARLINK-4166,PAYLOAD,2023-10-21 12:45:40,15.08840457,0.0001403,53.2144,125.1999,90.2019,269.9134,0.00013322,1.833e-05,0.0,0 STARLINK-4166,1 53291U 22086BB  23294.53172064  .00001833  00000-0  13322-3 0  9995,2 53291  53.2144 125.1999 0001403  90.2019 269.9134 15.08840457 69894,6917.879,95.438,540.715,538.773,0.0
53291.0,STARLINK-4166,PAYLOAD,2023-10-21 19:07:12,15.08850591,0.0001411,53.2151,124.0106,88.8141,271.3013,0.00010232,1.341e-05,0.0,0 STARLINK-4166,1 53291U 22086BB  23294.79667268  .00001341  00000-0  10232-3 0  9999,2 53291  53.2151 124.0106 0001411  88.8141 271.3013 15.08850591 69778,6917.848,95.437,540.689,538.737,0.0
53291.0,STARLINK-4166,PAYLOAD,2023-10-21 22:17:58,15.08846822,0.0001428,53.2155,123.4152,90.0417,270.0739,0.00022316,3.266e-05,0.0,0 STARLINK-4166,1 53291U 22086BB  23294.92915169  .00003266  00000-0  22316-3 0  9994,2 53291  53.2155 123.4152 0001428  90.0417 270.0739 15.08846822 69958,6917.86,95.437,540.712,538.737,0.0
53291.0,STARLINK-4166,PAYLOAD,2023-10-22 12:36:28,15.08834094,0.0001542,53.215,120.7393,86.7098,273.407,6.4418e-05,7.37e-06,0.0,0 STARLINK-4166,1 53291U 22086BB  23295.52532543  .00000737  00000-0  64418-4 0  9992,2 53291  53.2150 120.7393 0001542  86.7098 273.4070 15.08834094 69889,6917.898,95.438,540.83,538.697,0.0
